[Satellite]
VERSION=1.1
NAME=ORBCOMM FM36 [+]
NICKNAME=ORBCOMM FM36 [+]
TLE1=1 25984U 99065E   15055.42753534  .00000616  00000-0  28063-3 0  9991
TLE2=2 25984  45.0378 160.8386 0005060 236.3543 241.2962 14.31795969794714
